{
  "type": "FeatureCollection",
  "name": "marco_demo_rota",
  "crs": { "type": "name", "properties": { "name": "urn:ogc:def:crs:EPSG::3857" } },
  "features": [
    { "type": "Feature", "properties": { "id": 0, "frame": "map", "name": "bekla_A" }, "geometry": { "type": "Point", "coordinates": [ -2.0, -2.0 ] } },
    { "type": "Feature", "properties": { "id": 1, "frame": "map", "name": "koridor_AB" }, "geometry": { "type": "Point", "coordinates": [  0.0, -2.0 ] } },
    { "type": "Feature", "properties": { "id": 2, "frame": "map", "name": "alma_1" }, "geometry": { "type": "Point", "coordinates": [  2.0, -2.0 ] } },
    { "type": "Feature", "properties": { "id": 3, "frame": "map", "name": "koridor_AC" }, "geometry": { "type": "Point", "coordinates": [ -2.0,  0.0 ] } },
    { "type": "Feature", "properties": { "id": 4, "frame": "map", "name": "merkez" }, "geometry": { "type": "Point", "coordinates": [  0.0,  0.0 ] } },
    { "type": "Feature", "properties": { "id": 5, "frame": "map", "name": "koridor_BD" }, "geometry": { "type": "Point", "coordinates": [  2.0,  0.0 ] } },
    { "type": "Feature", "properties": { "id": 6, "frame": "map", "name": "birak_1" }, "geometry": { "type": "Point", "coordinates": [ -2.0,  2.0 ] } },
    { "type": "Feature", "properties": { "id": 7, "frame": "map", "name": "koridor_CD" }, "geometry": { "type": "Point", "coordinates": [  0.0,  2.0 ] } },
    { "type": "Feature", "properties": { "id": 8, "frame": "map", "name": "kapi_q5" }, "geometry": { "type": "Point", "coordinates": [  2.0,  2.0 ] } },

    { "type": "Feature", "properties": { "id": 100, "startid": 0, "endid": 1, "cost": 1.0, "metadata": { "abs_speed_limit": 0.50 } }, "geometry": { "type": "MultiLineString", "coordinates": [ [ [ -2.0, -2.0 ], [ 0.0, -2.0 ] ] ] } },
    { "type": "Feature", "properties": { "id": 101, "startid": 1, "endid": 0, "cost": 1.0, "metadata": { "abs_speed_limit": 0.50 } }, "geometry": { "type": "MultiLineString", "coordinates": [ [ [ 0.0, -2.0 ], [ -2.0, -2.0 ] ] ] } },
    { "type": "Feature", "properties": { "id": 102, "startid": 1, "endid": 2, "cost": 1.0, "metadata": { "abs_speed_limit": 0.15 } }, "geometry": { "type": "MultiLineString", "coordinates": [ [ [ 0.0, -2.0 ], [ 2.0, -2.0 ] ] ] } },
    { "type": "Feature", "properties": { "id": 103, "startid": 2, "endid": 1, "cost": 1.0, "metadata": { "abs_speed_limit": 0.15 } }, "geometry": { "type": "MultiLineString", "coordinates": [ [ [ 2.0, -2.0 ], [ 0.0, -2.0 ] ] ] } },

    { "type": "Feature", "properties": { "id": 104, "startid": 0, "endid": 3, "cost": 1.0, "metadata": { "abs_speed_limit": 0.50 } }, "geometry": { "type": "MultiLineString", "coordinates": [ [ [ -2.0, -2.0 ], [ -2.0, 0.0 ] ] ] } },
    { "type": "Feature", "properties": { "id": 105, "startid": 3, "endid": 0, "cost": 1.0, "metadata": { "abs_speed_limit": 0.50 } }, "geometry": { "type": "MultiLineString", "coordinates": [ [ [ -2.0, 0.0 ], [ -2.0, -2.0 ] ] ] } },
    { "type": "Feature", "properties": { "id": 106, "startid": 1, "endid": 4, "cost": 1.0, "metadata": { "abs_speed_limit": 0.50 } }, "geometry": { "type": "MultiLineString", "coordinates": [ [ [ 0.0, -2.0 ], [ 0.0, 0.0 ] ] ] } },
    { "type": "Feature", "properties": { "id": 107, "startid": 4, "endid": 1, "cost": 1.0, "metadata": { "abs_speed_limit": 0.50 } }, "geometry": { "type": "MultiLineString", "coordinates": [ [ [ 0.0, 0.0 ], [ 0.0, -2.0 ] ] ] } },
    { "type": "Feature", "properties": { "id": 108, "startid": 2, "endid": 5, "cost": 1.0, "metadata": { "abs_speed_limit": 0.50 } }, "geometry": { "type": "MultiLineString", "coordinates": [ [ [ 2.0, -2.0 ], [ 2.0, 0.0 ] ] ] } },
    { "type": "Feature", "properties": { "id": 109, "startid": 5, "endid": 2, "cost": 1.0, "metadata": { "abs_speed_limit": 0.50 } }, "geometry": { "type": "MultiLineString", "coordinates": [ [ [ 2.0, 0.0 ], [ 2.0, -2.0 ] ] ] } },

    { "type": "Feature", "properties": { "id": 110, "startid": 3, "endid": 4, "cost": 1.0, "metadata": { "abs_speed_limit": 0.50 } }, "geometry": { "type": "MultiLineString", "coordinates": [ [ [ -2.0, 0.0 ], [ 0.0, 0.0 ] ] ] } },
    { "type": "Feature", "properties": { "id": 111, "startid": 4, "endid": 3, "cost": 1.0, "metadata": { "abs_speed_limit": 0.50 } }, "geometry": { "type": "MultiLineString", "coordinates": [ [ [ 0.0, 0.0 ], [ -2.0, 0.0 ] ] ] } },
    { "type": "Feature", "properties": { "id": 112, "startid": 4, "endid": 5, "cost": 1.0, "metadata": { "abs_speed_limit": 0.50 } }, "geometry": { "type": "MultiLineString", "coordinates": [ [ [ 0.0, 0.0 ], [ 2.0, 0.0 ] ] ] } },
    { "type": "Feature", "properties": { "id": 113, "startid": 5, "endid": 4, "cost": 1.0, "metadata": { "abs_speed_limit": 0.50 } }, "geometry": { "type": "MultiLineString", "coordinates": [ [ [ 2.0, 0.0 ], [ 0.0, 0.0 ] ] ] } },

    { "type": "Feature", "properties": { "id": 114, "startid": 3, "endid": 6, "cost": 1.0, "metadata": { "abs_speed_limit": 0.15 } }, "geometry": { "type": "MultiLineString", "coordinates": [ [ [ -2.0, 0.0 ], [ -2.0, 2.0 ] ] ] } },
    { "type": "Feature", "properties": { "id": 115, "startid": 6, "endid": 3, "cost": 1.0, "metadata": { "abs_speed_limit": 0.15 } }, "geometry": { "type": "MultiLineString", "coordinates": [ [ [ -2.0, 2.0 ], [ -2.0, 0.0 ] ] ] } },
    { "type": "Feature", "properties": { "id": 116, "startid": 4, "endid": 7, "cost": 1.0, "metadata": { "abs_speed_limit": 0.50 } }, "geometry": { "type": "MultiLineString", "coordinates": [ [ [ 0.0, 0.0 ], [ 0.0, 2.0 ] ] ] } },
    { "type": "Feature", "properties": { "id": 117, "startid": 7, "endid": 4, "cost": 1.0, "metadata": { "abs_speed_limit": 0.50 } }, "geometry": { "type": "MultiLineString", "coordinates": [ [ [ 0.0, 2.0 ], [ 0.0, 0.0 ] ] ] } },
    { "type": "Feature", "properties": { "id": 118, "startid": 5, "endid": 8, "cost": 1.0, "metadata": { "abs_speed_limit": 0.15 } }, "geometry": { "type": "MultiLineString", "coordinates": [ [ [ 2.0, 0.0 ], [ 2.0, 2.0 ] ] ] } },
    { "type": "Feature", "properties": { "id": 119, "startid": 8, "endid": 5, "cost": 1.0, "metadata": { "abs_speed_limit": 0.15 } }, "geometry": { "type": "MultiLineString", "coordinates": [ [ [ 2.0, 2.0 ], [ 2.0, 0.0 ] ] ] } },

    { "type": "Feature", "properties": { "id": 120, "startid": 6, "endid": 7, "cost": 1.0, "metadata": { "abs_speed_limit": 0.50 } }, "geometry": { "type": "MultiLineString", "coordinates": [ [ [ -2.0, 2.0 ], [ 0.0, 2.0 ] ] ] } },
    { "type": "Feature", "properties": { "id": 121, "startid": 7, "endid": 6, "cost": 1.0, "metadata": { "abs_speed_limit": 0.50 } }, "geometry": { "type": "MultiLineString", "coordinates": [ [ [ 0.0, 2.0 ], [ -2.0, 2.0 ] ] ] } },
    { "type": "Feature", "properties": { "id": 122, "startid": 7, "endid": 8, "cost": 1.0, "metadata": { "abs_speed_limit": 0.15 } }, "geometry": { "type": "MultiLineString", "coordinates": [ [ [ 0.0, 2.0 ], [ 2.0, 2.0 ] ] ] } },
    { "type": "Feature", "properties": { "id": 123, "startid": 8, "endid": 7, "cost": 1.0, "metadata": { "abs_speed_limit": 0.15 } }, "geometry": { "type": "MultiLineString", "coordinates": [ [ [ 2.0, 2.0 ], [ 0.0, 2.0 ] ] ] } }
  ]
}
