{
  "type": "FeatureCollection", "name": "marco_phase10_route",
  "features": [
    {"type":"Feature","properties":{"id":0,"frame":"map","name":"bekla_A"},"geometry":{"type":"Point","coordinates":[-2,-2]}},
    {"type":"Feature","properties":{"id":1,"frame":"map","name":"koridor_AB"},"geometry":{"type":"Point","coordinates":[0,-2]}},
    {"type":"Feature","properties":{"id":2,"frame":"map","name":"alma_1"},"geometry":{"type":"Point","coordinates":[2,-2]}},
    {"type":"Feature","properties":{"id":3,"frame":"map","name":"koridor_AC"},"geometry":{"type":"Point","coordinates":[-2,0]}},
    {"type":"Feature","properties":{"id":4,"frame":"map","name":"merkez"},"geometry":{"type":"Point","coordinates":[0,0]}},
    {"type":"Feature","properties":{"id":5,"frame":"map","name":"koridor_BD"},"geometry":{"type":"Point","coordinates":[2,0]}},
    {"type":"Feature","properties":{"id":6,"frame":"map","name":"birak_1"},"geometry":{"type":"Point","coordinates":[-2,2]}},
    {"type":"Feature","properties":{"id":7,"frame":"map","name":"koridor_CD"},"geometry":{"type":"Point","coordinates":[0,2]}},
    {"type":"Feature","properties":{"id":8,"frame":"map","name":"kapi_q5"},"geometry":{"type":"Point","coordinates":[2,2]}},
    {"type":"Feature","properties":{"id":9,"frame":"map","name":"alma_2"},"geometry":{"type":"Point","coordinates":[3,-1]}},
    {"type":"Feature","properties":{"id":10,"frame":"map","name":"alma_3"},"geometry":{"type":"Point","coordinates":[3,0]}},
    {"type":"Feature","properties":{"id":11,"frame":"map","name":"birak_2"},"geometry":{"type":"Point","coordinates":[-3,1]}},
    {"type":"Feature","properties":{"id":12,"frame":"map","name":"birak_3"},"geometry":{"type":"Point","coordinates":[-3,2]}},
    {"type":"Feature","properties":{"id":100,"startid":0,"endid":1,"metadata":{"abs_speed_limit":0.5}},"geometry":{"type":"MultiLineString","coordinates":[[[-2,-2],[0,-2]]]}},
    {"type":"Feature","properties":{"id":101,"startid":1,"endid":0,"metadata":{"abs_speed_limit":0.5}},"geometry":{"type":"MultiLineString","coordinates":[[[0,-2],[-2,-2]]]}},
    {"type":"Feature","properties":{"id":102,"startid":1,"endid":2,"metadata":{"abs_speed_limit":0.15}},"geometry":{"type":"MultiLineString","coordinates":[[[0,-2],[2,-2]]]}},
    {"type":"Feature","properties":{"id":103,"startid":2,"endid":1,"metadata":{"abs_speed_limit":0.15}},"geometry":{"type":"MultiLineString","coordinates":[[[2,-2],[0,-2]]]}},
    {"type":"Feature","properties":{"id":104,"startid":0,"endid":3,"metadata":{"abs_speed_limit":0.5}},"geometry":{"type":"MultiLineString","coordinates":[[[-2,-2],[-2,0]]]}},
    {"type":"Feature","properties":{"id":105,"startid":3,"endid":0,"metadata":{"abs_speed_limit":0.5}},"geometry":{"type":"MultiLineString","coordinates":[[[-2,0],[-2,-2]]]}},
    {"type":"Feature","properties":{"id":106,"startid":1,"endid":4,"metadata":{"abs_speed_limit":0.5}},"geometry":{"type":"MultiLineString","coordinates":[[[0,-2],[0,0]]]}},
    {"type":"Feature","properties":{"id":107,"startid":4,"endid":1,"metadata":{"abs_speed_limit":0.5}},"geometry":{"type":"MultiLineString","coordinates":[[[0,0],[0,-2]]]}},
    {"type":"Feature","properties":{"id":108,"startid":2,"endid":5,"metadata":{"abs_speed_limit":0.5}},"geometry":{"type":"MultiLineString","coordinates":[[[2,-2],[2,0]]]}},
    {"type":"Feature","properties":{"id":109,"startid":5,"endid":2,"metadata":{"abs_speed_limit":0.5}},"geometry":{"type":"MultiLineString","coordinates":[[[2,0],[2,-2]]]}},
    {"type":"Feature","properties":{"id":110,"startid":3,"endid":4,"metadata":{"abs_speed_limit":0.5}},"geometry":{"type":"MultiLineString","coordinates":[[[-2,0],[0,0]]]}},
    {"type":"Feature","properties":{"id":111,"startid":4,"endid":3,"metadata":{"abs_speed_limit":0.5}},"geometry":{"type":"MultiLineString","coordinates":[[[0,0],[-2,0]]]}},
    {"type":"Feature","properties":{"id":112,"startid":4,"endid":5,"metadata":{"abs_speed_limit":0.5}},"geometry":{"type":"MultiLineString","coordinates":[[[0,0],[2,0]]]}},
    {"type":"Feature","properties":{"id":113,"startid":5,"endid":4,"metadata":{"abs_speed_limit":0.5}},"geometry":{"type":"MultiLineString","coordinates":[[[2,0],[0,0]]]}},
    {"type":"Feature","properties":{"id":114,"startid":3,"endid":6,"metadata":{"abs_speed_limit":0.15}},"geometry":{"type":"MultiLineString","coordinates":[[[-2,0],[-2,2]]]}},
    {"type":"Feature","properties":{"id":115,"startid":6,"endid":3,"metadata":{"abs_speed_limit":0.15}},"geometry":{"type":"MultiLineString","coordinates":[[[-2,2],[-2,0]]]}},
    {"type":"Feature","properties":{"id":116,"startid":4,"endid":7,"metadata":{"abs_speed_limit":0.5}},"geometry":{"type":"MultiLineString","coordinates":[[[0,0],[0,2]]]}},
    {"type":"Feature","properties":{"id":117,"startid":7,"endid":4,"metadata":{"abs_speed_limit":0.5}},"geometry":{"type":"MultiLineString","coordinates":[[[0,2],[0,0]]]}},
    {"type":"Feature","properties":{"id":118,"startid":5,"endid":8,"metadata":{"abs_speed_limit":0.15}},"geometry":{"type":"MultiLineString","coordinates":[[[2,0],[2,2]]]}},
    {"type":"Feature","properties":{"id":119,"startid":8,"endid":5,"metadata":{"abs_speed_limit":0.15}},"geometry":{"type":"MultiLineString","coordinates":[[[2,2],[2,0]]]}},
    {"type":"Feature","properties":{"id":120,"startid":6,"endid":7,"metadata":{"abs_speed_limit":0.3}},"geometry":{"type":"MultiLineString","coordinates":[[[-2,2],[0,2]]]}},
    {"type":"Feature","properties":{"id":121,"startid":7,"endid":6,"metadata":{"abs_speed_limit":0.3}},"geometry":{"type":"MultiLineString","coordinates":[[[0,2],[-2,2]]]}},
    {"type":"Feature","properties":{"id":122,"startid":7,"endid":8,"metadata":{"abs_speed_limit":0.3}},"geometry":{"type":"MultiLineString","coordinates":[[[0,2],[2,2]]]}},
    {"type":"Feature","properties":{"id":123,"startid":8,"endid":7,"metadata":{"abs_speed_limit":0.3}},"geometry":{"type":"MultiLineString","coordinates":[[[2,2],[0,2]]]}},
    {"type":"Feature","properties":{"id":124,"startid":5,"endid":9,"metadata":{"abs_speed_limit":0.15}},"geometry":{"type":"MultiLineString","coordinates":[[[2,0],[3,-1]]]}},
    {"type":"Feature","properties":{"id":125,"startid":9,"endid":5,"metadata":{"abs_speed_limit":0.15}},"geometry":{"type":"MultiLineString","coordinates":[[[3,-1],[2,0]]]}},
    {"type":"Feature","properties":{"id":126,"startid":5,"endid":10,"metadata":{"abs_speed_limit":0.15}},"geometry":{"type":"MultiLineString","coordinates":[[[2,0],[3,0]]]}},
    {"type":"Feature","properties":{"id":127,"startid":10,"endid":5,"metadata":{"abs_speed_limit":0.15}},"geometry":{"type":"MultiLineString","coordinates":[[[3,0],[2,0]]]}},
    {"type":"Feature","properties":{"id":128,"startid":3,"endid":11,"metadata":{"abs_speed_limit":0.15}},"geometry":{"type":"MultiLineString","coordinates":[[[-2,0],[-3,1]]]}},
    {"type":"Feature","properties":{"id":129,"startid":11,"endid":3,"metadata":{"abs_speed_limit":0.15}},"geometry":{"type":"MultiLineString","coordinates":[[[-3,1],[-2,0]]]}},
    {"type":"Feature","properties":{"id":130,"startid":6,"endid":12,"metadata":{"abs_speed_limit":0.15}},"geometry":{"type":"MultiLineString","coordinates":[[[-2,2],[-3,2]]]}},
    {"type":"Feature","properties":{"id":131,"startid":12,"endid":6,"metadata":{"abs_speed_limit":0.15}},"geometry":{"type":"MultiLineString","coordinates":[[[-3,2],[-2,2]]]}}
  ]
}
